{
  "norad_id": 56927,
  "name": "STARLINK-5808",
  "history": [
    {
      "epoch": "2026-04-15T17:59:54.046176Z",
      "apogee_km": 486.47519413285954,
      "perigee_km": 484.6412147742294,
      "latitude_deg": -4.9074351746330886e-05,
      "longitude_deg": 16.543133832116066,
      "height_km": 485.26065281890317,
      "semi_major_axis_km": 6863.695204453544,
      "eccentricity": 0.0001336,
      "inclination_deg": 43.0021,
      "raan_deg": 130.4259,
      "arg_perigee_deg": 274.6619,
      "mean_anomaly_deg": 85.4079,
      "mean_motion_rev_day": 15.26742438
    },
    {
      "epoch": "2026-04-16T08:07:46.596864Z",
      "apogee_km": 486.4710312971756,
      "perigee_km": 484.65352372849065,
      "latitude_deg": 2.342330603931841e-06,
      "longitude_deg": 160.67277820836412,
      "height_km": 485.274784270688,
      "semi_major_axis_km": 6863.699277512833,
      "eccentricity": 0.0001324,
      "inclination_deg": 43.002,
      "raan_deg": 127.1048,
      "arg_perigee_deg": 274.0665,
      "mean_anomaly_deg": 86.0035,
      "mean_motion_rev_day": 15.26741079
    },
    {
      "epoch": "2026-04-17T07:40:53.628960Z",
      "apogee_km": 486.3782745409608,
      "perigee_km": 484.7375769059154,
      "latitude_deg": -2.794437017617336e-05,
      "longitude_deg": 160.89160277739484,
      "height_km": 485.31211667508364,
      "semi_major_axis_km": 6863.694925723438,
      "eccentricity": 0.00011952,
      "inclination_deg": 43.0022,
      "raan_deg": 121.5702,
      "arg_perigee_deg": 271.5837,
      "mean_anomaly_deg": 88.4877,
      "mean_motion_rev_day": 15.26742531
    },
    {
      "epoch": "2026-04-18T07:14:00.837312Z",
      "apogee_km": 486.42179276355546,
      "perigee_km": 484.7018871082446,
      "latitude_deg": 1.1581018616944171e-05,
      "longitude_deg": 161.10736454504945,
      "height_km": 485.36996598377465,
      "semi_major_axis_km": 6863.6988399359,
      "eccentricity": 0.00012529,
      "inclination_deg": 43.0011,
      "raan_deg": 116.0332,
      "arg_perigee_deg": 267.9109,
      "mean_anomaly_deg": 92.1599,
      "mean_motion_rev_day": 15.26741225
    },
    {
      "epoch": "2026-04-20T11:01:18.524352Z",
      "apogee_km": 485.49781073454415,
      "perigee_km": 481.1475080812861,
      "latitude_deg": -1.8105711239244244e-05,
      "longitude_deg": 89.97386690583889,
      "height_km": 482.8249060103841,
      "semi_major_axis_km": 6861.459659407915,
      "eccentricity": 0.00031701,
      "inclination_deg": 43.0047,
      "raan_deg": 103.8503,
      "arg_perigee_deg": 277.2968,
      "mean_anomaly_deg": 82.7523,
      "mean_motion_rev_day": 15.27488645
    },
    {
      "epoch": "2026-04-21T20:00:01.999008Z",
      "apogee_km": 484.05391468325524,
      "perigee_km": 482.15335102795416,
      "latitude_deg": 3.0880722679030965,
      "longitude_deg": -50.520702884542885,
      "height_km": 482.8101875846858,
      "semi_major_axis_km": 6861.240632855604,
      "eccentricity": 0.0001385,
      "inclination_deg": 43.0019,
      "raan_deg": 96.0932,
      "arg_perigee_deg": 257.514,
      "mean_anomaly_deg": 107.0591,
      "mean_motion_rev_day": 15.27561787
    },
    {
      "epoch": "2026-04-22T20:00:03.000384Z",
      "apogee_km": 484.0945613259264,
      "perigee_km": 482.1102908838966,
      "latitude_deg": 39.898676292306156,
      "longitude_deg": 56.471325871070334,
      "height_km": 486.3765993548555,
      "semi_major_axis_km": 6861.239426104911,
      "eccentricity": 0.0001446,
      "inclination_deg": 43.0021,
      "raan_deg": 90.4455,
      "arg_perigee_deg": 256.9666,
      "mean_anomaly_deg": 213.3994,
      "mean_motion_rev_day": 15.2756219
    },
    {
      "epoch": "2026-04-23T14:00:04.000032Z",
      "apogee_km": 483.96683019984266,
      "perigee_km": 482.00221666282323,
      "latitude_deg": -42.40259930419058,
      "longitude_deg": -52.29263212972106,
      "height_km": 495.06974115688075,
      "semi_major_axis_km": 6861.121523431332,
      "eccentricity": 0.00014317,
      "inclination_deg": 43.0025,
      "raan_deg": 86.2106,
      "arg_perigee_deg": 265.4461,
      "mean_anomaly_deg": 14.2581,
      "mean_motion_rev_day": 15.27601565
    },
    {
      "epoch": "2026-04-24T07:36:47.941056Z",
      "apogee_km": 483.9060219216735,
      "perigee_km": 482.1934697099168,
      "latitude_deg": -9.354551610571175e-06,
      "longitude_deg": 115.51470035370791,
      "height_km": 482.9490969749386,
      "semi_major_axis_km": 6861.186745815795,
      "eccentricity": 0.0001248,
      "inclination_deg": 43.0037,
      "raan_deg": 82.0663,
      "arg_perigee_deg": 261.7823,
      "mean_anomaly_deg": 98.2887,
      "mean_motion_rev_day": 15.27579783
    },
    {
      "epoch": "2026-04-25T05:34:59.564640Z",
      "apogee_km": 483.91388845288657,
      "perigee_km": 482.2040784138153,
      "latitude_deg": -7.80476103416883e-07,
      "longitude_deg": 139.89480572214686,
      "height_km": 482.87190257926636,
      "semi_major_axis_km": 6861.195983433351,
      "eccentricity": 0.0001246,
      "inclination_deg": 43.0041,
      "raan_deg": 76.8971,
      "arg_perigee_deg": 267.5936,
      "mean_anomaly_deg": 92.4773,
      "mean_motion_rev_day": 15.27576698
    },
    {
      "epoch": "2026-04-26T05:07:20.076384Z",
      "apogee_km": 483.9291711287142,
      "perigee_km": 482.16886524388883,
      "latitude_deg": 1.151242273084115e-05,
      "longitude_deg": 140.3034396500718,
      "height_km": 482.8671223375338,
      "semi_major_axis_km": 6861.186018186301,
      "eccentricity": 0.00012828,
      "inclination_deg": 43.0042,
      "raan_deg": 71.3579,
      "arg_perigee_deg": 267.3274,
      "mean_anomaly_deg": 92.7431,
      "mean_motion_rev_day": 15.27580026
    },
    {
      "epoch": "2026-04-27T20:21:14.912064Z",
      "apogee_km": 483.9485597933781,
      "perigee_km": 482.1701376997844,
      "latitude_deg": 4.922439235263815e-05,
      "longitude_deg": -99.01699783779118,
      "height_km": 482.79930670812126,
      "semi_major_axis_km": 6861.196348746581,
      "eccentricity": 0.0001296,
      "inclination_deg": 43.0048,
      "raan_deg": 62.1271,
      "arg_perigee_deg": 272.3971,
      "mean_anomaly_deg": 87.6733,
      "mean_motion_rev_day": 15.27576576
    },
    {
      "epoch": "2026-04-28T19:53:35.734848Z",
      "apogee_km": 483.96649632698063,
      "perigee_km": 482.1455357005307,
      "latitude_deg": 1.350827108325854e-06,
      "longitude_deg": -98.60902697389011,
      "height_km": 482.769044669003,
      "semi_major_axis_km": 6861.193016013755,
      "eccentricity": 0.0001327,
      "inclination_deg": 43.0052,
      "raan_deg": 56.5886,
      "arg_perigee_deg": 274.0433,
      "mean_anomaly_deg": 86.0267,
      "mean_motion_rev_day": 15.27577689
    },
    {
      "epoch": "2026-04-29T21:00:06.177600Z",
      "apogee_km": 483.9022315663724,
      "perigee_km": 482.18556410573456,
      "latitude_deg": -4.355127749649288e-05,
      "longitude_deg": -122.17558696716326,
      "height_km": 482.87698631556316,
      "semi_major_axis_km": 6861.180897836053,
      "eccentricity": 0.0001251,
      "inclination_deg": 43.0048,
      "raan_deg": 50.6801,
      "arg_perigee_deg": 266.2604,
      "mean_anomaly_deg": 93.8104,
      "mean_motion_rev_day": 15.27581736
    },
    {
      "epoch": "2026-04-30T04:50:52.891584Z",
      "apogee_km": 483.8988524148799,
      "perigee_km": 482.1616048725873,
      "latitude_deg": 2.705482783386667e-05,
      "longitude_deg": 117.96191017620116,
      "height_km": 482.80084739505753,
      "semi_major_axis_km": 6861.167228643733,
      "eccentricity": 0.0001266,
      "inclination_deg": 43.0049,
      "raan_deg": 48.8344,
      "arg_perigee_deg": 270.4297,
      "mean_anomaly_deg": 89.641,
      "mean_motion_rev_day": 15.27586301
    },
    {
      "epoch": "2026-05-02T00:47:15.730080Z",
      "apogee_km": 484.01738125926386,
      "perigee_km": 482.1154556716647,
      "latitude_deg": 1.4409016561954742e-05,
      "longitude_deg": 166.7226960743885,
      "height_km": 482.94514209175077,
      "semi_major_axis_km": 6861.203418465464,
      "eccentricity": 0.0001386,
      "inclination_deg": 43.006,
      "raan_deg": 38.4949,
      "arg_perigee_deg": 263.8798,
      "mean_anomaly_deg": 96.1896,
      "mean_motion_rev_day": 15.27574215
    }
  ]
}